start=new Date('2021-09-25T00:00:00.000Z').valueOf();
sats=[{"REV_AT_EPOCH":"7367","EPOCH":"2021-09-24T21:17:23.820000","CENTER_NAME":"EARTH","PERIOD":"95.593","TLE_LINE1":"1 45681U 20035AA  21267.88708125  .00000041  00000-0  21696-4 0  9994","BSTAR":"0.00002169600000","GP_ID":"185427970","SITE":"AFETR","TIME_SYSTEM":"UTC","RCS_SIZE":"LARGE","OBJECT_ID":"2020-035AA","MEAN_MOTION_DDOT":"0.0000000000000","INCLINATION":"53.0531","TLE_LINE2":"2 45681  53.0531 159.6249 0001939  78.1851 281.9356 15.06385676 73675","ECCENTRICITY":"0.00019390","PERIAPSIS":"545.915","SEMIMAJOR_AXIS":"6925.392","OBJECT_TYPE":"PAYLOAD","CLASSIFICATION_TYPE":"U","ARG_OF_PERICENTER":"78.1851","APOAPSIS":"548.600","NORAD_CAT_ID":"45681","EPHEMERIS_TYPE":"0","FILE":"3126800","MEAN_ANOMALY":"281.9356","COUNTRY_CODE":"US","MEAN_MOTION":"15.06385676","MEAN_ELEMENT_THEORY":"SGP4","ELEMENT_SET_NO":"999","DECAY_DATE":null,"OBJECT_NAME":"STARLINK-1396","MEAN_MOTION_DOT":"0.00000041","LAUNCH_DATE":"2020-06-04","REF_FRAME":"TEME","RA_OF_ASC_NODE":"159.6249"},{"REV_AT_EPOCH":"7366","TLE_LINE1":"1 45682U 20035AB  21267.89445288  .00000338  00000-0  41581-4 0  9998","PERIOD":"95.592","CENTER_NAME":"EARTH","EPOCH":"2021-09-24T21:28:00.728832","INCLINATION":"53.0550","MEAN_MOTION_DDOT":"0.0000000000000","OBJECT_ID":"2020-035AB","GP_ID":"185426719","BSTAR":"0.00004158100000","SITE":"AFETR","RCS_SIZE":"LARGE","TIME_SYSTEM":"UTC","ECCENTRICITY":"0.00021910","SEMIMAJOR_AXIS":"6925.346","PERIAPSIS":"545.693","TLE_LINE2":"2 45682  53.0550 159.5959 0002191  72.1342 287.9886 15.06400901 73666","APOAPSIS":"548.728","CLASSIFICATION_TYPE":"U","OBJECT_TYPE":"PAYLOAD","ARG_OF_PERICENTER":"72.1342","MEAN_ANOMALY":"287.9886","FILE":"3126800","COUNTRY_CODE":"US","EPHEMERIS_TYPE":"0","NORAD_CAT_ID":"45682","OBJECT_NAME":"STARLINK-1397","MEAN_MOTION":"15.06400901","DECAY_DATE":null,"ELEMENT_SET_NO":"999","MEAN_ELEMENT_THEORY":"SGP4","REF_FRAME":"TEME","RA_OF_ASC_NODE":"159.5959","MEAN_MOTION_DOT":"0.00000338","LAUNCH_DATE":"2020-06-04"},{"DECAY_DATE":null,"ELEMENT_SET_NO":"999","MEAN_ELEMENT_THEORY":"SGP4","MEAN_MOTION":"15.06387005","OBJECT_NAME":"STARLINK-1399","LAUNCH_DATE":"2020-06-04","MEAN_MOTION_DOT":"-0.00000049","RA_OF_ASC_NODE":"159.6748","REF_FRAME":"TEME","ARG_OF_PERICENTER":"74.7627","CLASSIFICATION_TYPE":"U","OBJECT_TYPE":"PAYLOAD","APOAPSIS":"548.874","EPHEMERIS_TYPE":"0","NORAD_CAT_ID":"45683","FILE":"3126800","COUNTRY_CODE":"US","MEAN_ANOMALY":"285.3621","SITE":"AFETR","TIME_SYSTEM":"UTC","RCS_SIZE":"LARGE","GP_ID":"185426969","BSTAR":"0.00001564500000","MEAN_MOTION_DDOT":"0.0000000000000","INCLINATION":"53.0552","OBJECT_ID":"2020-035AC","TLE_LINE2":"2 45683  53.0552 159.6748 0002340  74.7627 285.3621 15.06387005 73675","PERIAPSIS":"545.633","SEMIMAJOR_AXIS":"6925.388","ECCENTRICITY":"0.00023400","REV_AT_EPOCH":"7367","CENTER_NAME":"EARTH","EPOCH":"2021-09-24T21:01:28.316352","TLE_LINE1":"1 45683U 20035AC  21267.87602218 -.00000049  00000-0  15645-4 0  9997","PERIOD":"95.593"},{"NORAD_CAT_ID":"45684","EPHEMERIS_TYPE":"0","COUNTRY_CODE":"US","FILE":"3126800","MEAN_ANOMALY":"279.7502","OBJECT_TYPE":"PAYLOAD","CLASSIFICATION_TYPE":"U","ARG_OF_PERICENTER":"80.3739","APOAPSIS":"548.689","MEAN_MOTION_DOT":"0.00004191","LAUNCH_DATE":"2020-06-04","REF_FRAME":"TEME","RA_OF_ASC_NODE":"159.4759","MEAN_MOTION":"15.06423234","MEAN_ELEMENT_THEORY":"SGP4","ELEMENT_SET_NO":"999","DECAY_DATE":null,"OBJECT_NAME":"STARLINK-1401","CENTER_NAME":"EARTH","EPOCH":"2021-09-24T22:05:08.569248","PERIOD":"95.591","TLE_LINE1":"1 45684U 20035AD  21267.92023807  .00004191  00000-0  29990-3 0  9993","REV_AT_EPOCH":"7368","TLE_LINE2":"2 45684  53.0533 159.4759 0002233  80.3739 279.7502 15.06423234 73684","ECCENTRICITY":"0.00022330","SEMIMAJOR_AXIS":"6925.277","PERIAPSIS":"545.596","BSTAR":"0.00029990000000","GP_ID":"185427718","SITE":"AFETR","TIME_SYSTEM":"UTC","RCS_SIZE":"LARGE","OBJECT_ID":"2020-035AD","INCLINATION":"53.0533","MEAN_MOTION_DDOT":"0.0000000000000"},{"CLASSIFICATION_TYPE":"U","OBJECT_TYPE":"PAYLOAD","ARG_OF_PERICENTER":"70.1567","APOAPSIS":"548.618","NORAD_CAT_ID":"45685","EPHEMERIS_TYPE":"0","COUNTRY_CODE":"US","FILE":"3126800","MEAN_ANOMALY":"289.9641","MEAN_MOTION":"15.06400398","DECAY_DATE":null,"ELEMENT_SET_NO":"999","MEAN_ELEMENT_THEORY":"SGP4","OBJECT_NAME":"STARLINK-1402","MEAN_MOTION_DOT":"0.00000146","LAUNCH_DATE":"2020-06-04","REF_FRAME":"TEME","RA_OF_ASC_NODE":"159.4967","REV_AT_EPOCH":"7368","CENTER_NAME":"EARTH","EPOCH":"2021-09-24T21:59:50.688960","TLE_LINE1":"1 45685U 20035AE  21267.91655890  .00000146  00000-0  28705-4 0  9996","PERIOD":"95.592","GP_ID":"185428470","BSTAR":"0.00002870500000","SITE":"AFETR","TIME_SYSTEM":"UTC","RCS_SIZE":"LARGE","INCLINATION":"53.0543","MEAN_MOTION_DDOT":"0.0000000000000","OBJECT_ID":"2020-035AE","TLE_LINE2":"2 45685  53.0543 159.4967 0002030  70.1567 289.9641 15.06400398 73681","ECCENTRICITY":"0.00020300","PERIAPSIS":"545.806","SEMIMAJOR_AXIS":"6925.347"},{"MEAN_MOTION_DOT":"0.00003997","LAUNCH_DATE":"2020-06-04","REF_FRAME":"TEME","RA_OF_ASC_NODE":"159.8262","MEAN_MOTION":"15.06420862","ELEMENT_SET_NO":"999","DECAY_DATE":null,"MEAN_ELEMENT_THEORY":"SGP4","OBJECT_NAME":"STARLINK-1404","EPHEMERIS_TYPE":"0","NORAD_CAT_ID":"45686","MEAN_ANOMALY":"288.7824","FILE":"3126800","COUNTRY_CODE":"US","CLASSIFICATION_TYPE":"U","OBJECT_TYPE":"PAYLOAD","ARG_OF_PERICENTER":"71.3395","APOAPSIS":"548.622","TLE_LINE2":"2 45686  53.0530 159.8262 0002126  71.3395 288.7824 15.06420862 73675","ECCENTRICITY":"0.00021260","PERIAPSIS":"545.677","SEMIMAJOR_AXIS":"6925.285","GP_ID":"185427219","BSTAR":"0.00028691000000","RCS_SIZE":"LARGE","SITE":"AFETR","TIME_SYSTEM":"UTC","MEAN_MOTION_DDOT":"0.0000000000000","INCLINATION":"53.0530","OBJECT_ID":"2020-035AF","EPOCH":"2021-09-24T20:13:41.547936","CENTER_NAME":"EARTH","TLE_LINE1":"1 45686U 20035AF  21267.84284199  .00003997  00000-0  28691-3 0  9999","PERIOD":"95.591","REV_AT_EPOCH":"7367"},{"RA_OF_ASC_NODE":"149.5868","REF_FRAME":"TEME","LAUNCH_DATE":"2020-06-04","MEAN_MOTION_DOT":"-0.00000349","OBJECT_NAME":"STARLINK-1406","MEAN_ELEMENT_THEORY":"SGP4","DECAY_DATE":null,"ELEMENT_SET_NO":"999","MEAN_MOTION":"15.05588893","COUNTRY_CODE":"US","FILE":"3126800","MEAN_ANOMALY":"293.8236","NORAD_CAT_ID":"45687","EPHEMERIS_TYPE":"0","APOAPSIS":"551.142","ARG_OF_PERICENTER":"66.2971","CLASSIFICATION_TYPE":"U","OBJECT_TYPE":"PAYLOAD","PERIAPSIS":"548.259","SEMIMAJOR_AXIS":"6927.836","ECCENTRICITY":"0.00020810","TLE_LINE2":"2 45687  53.0011 149.5868 0002081  66.2971 293.8236 15.05588893 73796","OBJECT_ID":"2020-035AG","INCLINATION":"53.0011","MEAN_MOTION_DDOT":"0.0000000000000","RCS_SIZE":"LARGE","SITE":"AFETR","TIME_SYSTEM":"UTC","BSTAR":"-0.00000472750000","GP_ID":"185427469","PERIOD":"95.644","TLE_LINE1":"1 45687U 20035AG  21267.89478248 -.00000349  00000-0 -47275-5 0  9996","CENTER_NAME":"EARTH","EPOCH":"2021-09-24T21:28:29.206272","REV_AT_EPOCH":"7379"},{"REF_FRAME":"TEME","RA_OF_ASC_NODE":"159.8551","MEAN_MOTION_DOT":"0.00001396","LAUNCH_DATE":"2020-06-04","OBJECT_NAME":"STARLINK-1408","MEAN_MOTION":"15.06405408","ELEMENT_SET_NO":"999","DECAY_DATE":null,"MEAN_ELEMENT_THEORY":"SGP4","FILE":"3126800","COUNTRY_CODE":"US","MEAN_ANOMALY":"282.5836","EPHEMERIS_TYPE":"0","NORAD_CAT_ID":"45688","APOAPSIS":"548.417","OBJECT_TYPE":"PAYLOAD","CLASSIFICATION_TYPE":"U","ARG_OF_PERICENTER":"77.5350","ECCENTRICITY":"0.00017620","PERIAPSIS":"545.977","SEMIMAJOR_AXIS":"6925.332","TLE_LINE2":"2 45688  53.0527 159.8551 0001762  77.5350 282.5836 15.06405408 73661","INCLINATION":"53.0527","MEAN_MOTION_DDOT":"0.0000000000000","OBJECT_ID":"2020-035AH","GP_ID":"185428218","BSTAR":"0.00011261000000","SITE":"AFETR","TIME_SYSTEM":"UTC","RCS_SIZE":"LARGE","TLE_LINE1":"1 45688U 20035AH  21267.83547789  .00001396  00000-0  11261-3 0  9993","PERIOD":"95.592","CENTER_NAME":"EARTH","EPOCH":"2021-09-24T20:03:05.289696","REV_AT_EPOCH":"7366"},{"LAUNCH_DATE":"2020-06-04","MEAN_MOTION_DOT":"-0.00001496","RA_OF_ASC_NODE":"159.4402","REF_FRAME":"TEME","MEAN_ELEMENT_THEORY":"SGP4","DECAY_DATE":null,"ELEMENT_SET_NO":"999","MEAN_MOTION":"15.06393082","OBJECT_NAME":"STARLINK-1413","EPHEMERIS_TYPE":"0","NORAD_CAT_ID":"45689","MEAN_ANOMALY":"289.5413","FILE":"3126800","COUNTRY_CODE":"US","ARG_OF_PERICENTER":"70.5788","CLASSIFICATION_TYPE":"U","OBJECT_TYPE":"PAYLOAD","APOAPSIS":"548.597","TLE_LINE2":"2 45689  53.0532 159.4402 0001967  70.5788 289.5413 15.06393082 73598","SEMIMAJOR_AXIS":"6925.370","PERIAPSIS":"545.873","ECCENTRICITY":"0.00019670","SITE":"AFETR","TIME_SYSTEM":"UTC","RCS_SIZE":"LARGE","BSTAR":"-0.00008153800000","GP_ID":"185427971","OBJECT_ID":"2020-035AJ","INCLINATION":"53.0532","MEAN_MOTION_DDOT":"0.0000000000000","EPOCH":"2021-09-24T22:15:46.353312","CENTER_NAME":"EARTH","PERIOD":"95.593","TLE_LINE1":"1 45689U 20035AJ  21267.92761983 -.00001496  00000-0 -81538-4 0  9996","REV_AT_EPOCH":"7359"},{"EPOCH":"2021-09-24T21:31:09.924096","CENTER_NAME":"EARTH","PERIOD":"95.644","TLE_LINE1":"1 45690U 20035AK  21267.89664264  .00000599  00000-0  60255-4 0  9992","REV_AT_EPOCH":"7365","TLE_LINE2":"2 45690  53.0009 159.5736 0002319  75.5515 284.5730 15.05590414 73656","SEMIMAJOR_AXIS":"6927.831","PERIAPSIS":"548.089","ECCENTRICITY":"0.00023190","RCS_SIZE":"LARGE","SITE":"AFETR","TIME_SYSTEM":"UTC","BSTAR":"0.00006025500000","GP_ID":"185426720","OBJECT_ID":"2020-035AK","INCLINATION":"53.0009","MEAN_MOTION_DDOT":"0.0000000000000","NORAD_CAT_ID":"45690","EPHEMERIS_TYPE":"0","COUNTRY_CODE":"US","FILE":"3126800","MEAN_ANOMALY":"284.5730","ARG_OF_PERICENTER":"75.5515","OBJECT_TYPE":"PAYLOAD","CLASSIFICATION_TYPE":"U","APOAPSIS":"551.302","LAUNCH_DATE":"2020-06-04","MEAN_MOTION_DOT":"0.00000599","RA_OF_ASC_NODE":"159.5736","REF_FRAME":"TEME","MEAN_ELEMENT_THEORY":"SGP4","ELEMENT_SET_NO":"999","DECAY_DATE":null,"MEAN_MOTION":"15.05590414","OBJECT_NAME":"STARLINK-1414"}];
